{"type": "FeatureCollection", "features": [ {"type": "Feature", "properties": {"norad_id": 58662, "name": "TIANMU-1 21", "group": "weather", "lat": 33.0005204111659, "lon": 110.14691530632898, "alt_km": 472.6758225994363, "timestamp": "2025-12-27T13:34:48.933341+00:00", "meta": {"OBJECT_NAME": "TIANMU-1 21", "OBJECT_ID": "2023-208C", "EPOCH": "2025-12-27T07:09:51.151680", "MEAN_MOTION": 15.31869643, "ECCENTRICITY": 0.00065827, "INCLINATION": 97.437, "RA_OF_ASC_NODE": 114.7449, "ARG_OF_PERICENTER": 200.725, "MEAN_ANOMALY": 159.3725, "EPHEMERIS_TYPE": 0, "CLASSIFICATION_TYPE": "U", "NORAD_CAT_ID": 58662, "ELEMENT_SET_NO": 999, "REV_AT_EPOCH": 11122, "BSTAR": 0.00039947028, "MEAN_MOTION_DOT": 0.00012228, "MEAN_MOTION_DDOT": 0}, "tle": {"line1": "1 58662U 23208C   25361.29850870  .00012228  00000+0  39947-3 0  9997", "line2": "2 58662  97.4370 114.7449 0006582 200.7250 159.3725 15.31869643111221"}}, "geometry": {"type": "Point", "coordinates": [110.14691530632898, 33.0005204111659]}}, {"type": "Feature", "properties": {"norad_id": 58663, "name": "TIANMU-1 22", "group": "weather", "lat": 74.5386492941798, "lon": -39.18782976975187, "alt_km": 475.84756539974023, "timestamp": "2025-12-27T13:34:48.933351+00:00", "meta": {"OBJECT_NAME": "TIANMU-1 22", "OBJECT_ID": "2023-208D", "EPOCH": "2025-12-27T06:50:27.710880", "MEAN_MOTION": 15.27854472, "ECCENTRICITY": 0.00031104, "INCLINATION": 97.4378, "RA_OF_ASC_NODE": 112.3477, "ARG_OF_PERICENTER": 214.4018, "MEAN_ANOMALY": 145.702, "EPHEMERIS_TYPE": 0, "CLASSIFICATION_TYPE": "U", "NORAD_CAT_ID": 58663, "ELEMENT_SET_NO": 999, "REV_AT_EPOCH": 11105, "BSTAR": 0.00036857958, "MEAN_MOTION_DOT": 9.954e-05, "MEAN_MOTION_DDOT": 0}, "tle": {"line1": "1 58663U 23208D   25361.28504295  .00009954  00000+0  36858-3 0  9994", "line2": "2 58663  97.4378 112.3477 0003110 214.4018 145.7020 15.27854472111050"}}, "geometry": {"type": "Point", "coordinates": [-39.18782976975187, 74.5386492941798]}}, {"type": "Feature", "properties": {"norad_id": 58700, "name": "TIANMU-1 15", "group": "weather", "lat": 60.56357012352635, "lon": 169.54706116230952, "alt_km": 490.212344458535, "timestamp": "2025-12-27T13:34:48.933363+00:00", "meta": {"OBJECT_NAME": "TIANMU-1 15", "OBJECT_ID": "2024-004A", "EPOCH": "2025-12-27T07:00:38.399040", "MEAN_MOTION": 15.24604145, "ECCENTRICITY": 0.0006149, "INCLINATION": 97.4632, "RA_OF_ASC_NODE": 182.7071, "ARG_OF_PERICENTER": 228.3621, "MEAN_ANOMALY": 131.709, "EPHEMERIS_TYPE": 0, "CLASSIFICATION_TYPE": "U", "NORAD_CAT_ID": 58700, "ELEMENT_SET_NO": 999, "REV_AT_EPOCH": 10956, "BSTAR": 0.00031453545, "MEAN_MOTION_DOT": 7.689e-05, "MEAN_MOTION_DDOT": 0}, "tle": {"line1": "1 58700U 24004A   25361.29211110  .00007689  00000+0  31454-3 0  9993", "line2": "2 58700  97.4632 182.7071 0006149 228.3621 131.7090 15.24604145109567"}}, "geometry": {"type": "Point", "coordinates": [169.54706116230952, 60.56357012352635]}}, {"type": "Feature", "properties": {"norad_id": 58701, "name": "TIANMU-1 16", "group": "weather", "lat": 35.14181536194603, "lon": 7.6469389344358705, "alt_km": 489.3096288808756, "timestamp": "2025-12-27T13:34:48.933374+00:00", "meta": {"OBJECT_NAME": "TIANMU-1 16", "OBJECT_ID": "2024-004B", "EPOCH": "2025-12-27T06:38:52.382688", "MEAN_MOTION": 15.24632193, "ECCENTRICITY": 0.00044864, "INCLINATION": 97.4571, "RA_OF_ASC_NODE": 182.0693, "ARG_OF_PERICENTER": 229.9673, "MEAN_ANOMALY": 130.1172, "EPHEMERIS_TYPE": 0, "CLASSIFICATION_TYPE": "U", "NORAD_CAT_ID": 58701, "ELEMENT_SET_NO": 999, "REV_AT_EPOCH": 10956, "BSTAR": 0.00034578259, "MEAN_MOTION_DOT": 8.466e-05, "MEAN_MOTION_DDOT": 0}, "tle": {"line1": "1 58701U 24004B   25361.27699517  .00008466  00000+0  34578-3 0  9997", "line2": "2 58701  97.4571 182.0693 0004486 229.9673 130.1172 15.24632193109567"}}, "geometry": {"type": "Point", "coordinates": [7.6469389344358705, 35.14181536194603]}}, {"type": "Feature", "properties": {"norad_id": 58702, "name": "TIANMU-1 17", "group": "weather", "lat": -50.771178327699076, "lon": -6.461917339634961, "alt_km": 496.19996568859005, "timestamp": "2025-12-27T13:34:48.933385+00:00", "meta": {"OBJECT_NAME": "TIANMU-1 17", "OBJECT_ID": "2024-004C", "EPOCH": "2025-12-27T07:50:36.083328", "MEAN_MOTION": 15.24675258, "ECCENTRICITY": 0.00036715, "INCLINATION": 97.4605, "RA_OF_ASC_NODE": 182.5365, "ARG_OF_PERICENTER": 229.9445, "MEAN_ANOMALY": 130.1471, "EPHEMERIS_TYPE": 0, "CLASSIFICATION_TYPE": "U", "NORAD_CAT_ID": 58702, "ELEMENT_SET_NO": 999, "REV_AT_EPOCH": 10956, "BSTAR": 0.00033460566, "MEAN_MOTION_DOT": 8.2e-05, "MEAN_MOTION_DDOT": 0}, "tle": {"line1": "1 58702U 24004C   25361.32680652  .00008200  00000+0  33461-3 0  9990", "line2": "2 58702  97.4605 182.5365 0003671 229.9445 130.1471 15.24675258109560"}}, "geometry": {"type": "Point", "coordinates": [-6.461917339634961, -50.771178327699076]}}, {"type": "Feature", "properties": {"norad_id": 58703, "name": "TIANMU-1 18", "group": "weather", "lat": -37.69377304410062, "lon": -171.21401922188116, "alt_km": 498.52683635659196, "timestamp": "2025-12-27T13:34:48.933395+00:00", "meta": {"OBJECT_NAME": "TIANMU-1 18", "OBJECT_ID": "2024-004D", "EPOCH": "2025-12-27T07:26:47.213952", "MEAN_MOTION": 15.24657204, "ECCENTRICITY": 0.00030678, "INCLINATION": 97.4622, "RA_OF_ASC_NODE": 182.7184, "ARG_OF_PERICENTER": 226.1069, "MEAN_ANOMALY": 133.9916, "EPHEMERIS_TYPE": 0, "CLASSIFICATION_TYPE": "U", "NORAD_CAT_ID": 58703, "ELEMENT_SET_NO": 999, "REV_AT_EPOCH": 10956, "BSTAR": 0.00031593372, "MEAN_MOTION_DOT": 7.733e-05, "MEAN_MOTION_DDOT": 0}, "tle": {"line1": "1 58703U 24004D   25361.31026868  .00007733  00000+0  31593-3 0  9997", "line2": "2 58703  97.4622 182.7184 0003067 226.1069 133.9916 15.24657204109567"}}, "geometry": {"type": "Point", "coordinates": [-171.21401922188116, -37.69377304410062]}}, {"type": "Feature", "properties": {"norad_id": 58990, "name": "INSAT-3DS", "group": "weather", "lat": -0.056451235106935706, "lon": 22.110898937521533, "alt_km": 35787.94072819221, "timestamp": "2025-12-27T13:34:48.933407+00:00", "meta": {"OBJECT_NAME": "INSAT-3DS", "OBJECT_ID": "2024-033A", "EPOCH": "2025-12-27T03:07:12.485568", "MEAN_MOTION": 1.00270739, "ECCENTRICITY": 0.00013755, "INCLINATION": 0.0646, "RA_OF_ASC_NODE": 98.7441, "ARG_OF_PERICENTER": 178.0436, "MEAN_ANOMALY": 307.9854, "EPHEMERIS_TYPE": 0, "CLASSIFICATION_TYPE": "U", "NORAD_CAT_ID": 58990, "ELEMENT_SET_NO": 999, "REV_AT_EPOCH": 4534, "BSTAR": 0, "MEAN_MOTION_DOT": -1.34e-06, "MEAN_MOTION_DDOT": 0}, "tle": {"line1": "1 58990U 24033A   25361.13000562 -.00000134  00000+0  00000+0 0  9994", "line2": "2 58990   0.0646  98.7441 0001375 178.0436 307.9854  1.00270739 45348"}}, "geometry": {"type": "Point", "coordinates": [22.110898937521533, -0.056451235106935706]}}, {"type": "Feature", "properties": {"norad_id": 59051, "name": "METEOR-M2 4", "group": "weather", "lat": 80.64539384476521, "lon": -153.7573138175154, "alt_km": 813.2709295421573, "timestamp": "2025-12-27T13:34:48.933420+00:00", "meta": {"OBJECT_NAME": "METEOR-M2 4", "OBJECT_ID": "2024-039A", "EPOCH": "2025-12-27T06:23:21.946272", "MEAN_MOTION": 14.22403555, "ECCENTRICITY": 0.00063045, "INCLINATION": 98.6787, "RA_OF_ASC_NODE": 317.9488, "ARG_OF_PERICENTER": 314.3636, "MEAN_ANOMALY": 45.7025, "EPHEMERIS_TYPE": 0, "CLASSIFICATION_TYPE": "U", "NORAD_CAT_ID": 59051, "ELEMENT_SET_NO": 999, "REV_AT_EPOCH": 9482, "BSTAR": 4.3115316e-05, "MEAN_MOTION_DOT": 5.2e-07, "MEAN_MOTION_DDOT": 0}, "tle": {"line1": "1 59051U 24039A   25361.26622623  .00000052  00000+0  43115-4 0  9998", "line2": "2 59051  98.6787 317.9488 0006304 314.3636  45.7025 14.22403555 94823"}}, "geometry": {"type": "Point", "coordinates": [-153.7573138175154, 80.64539384476521]}}, {"type": "Feature", "properties": {"norad_id": 60133, "name": "GOES 19", "group": "weather", "lat": -0.002072737832340401, "lon": -135.21589499145654, "alt_km": 35786.90647450076, "timestamp": "2025-12-27T13:34:48.933442+00:00", "meta": {"OBJECT_NAME": "GOES 19", "OBJECT_ID": "2024-119A", "EPOCH": "2025-12-27T05:45:33.756192", "MEAN_MOTION": 1.00270004, "ECCENTRICITY": 0.00011561, "INCLINATION": 0.0128, "RA_OF_ASC_NODE": 247.426, "ARG_OF_PERICENTER": 71.0215, "MEAN_ANOMALY": 148.7249, "EPHEMERIS_TYPE": 0, "CLASSIFICATION_TYPE": "U", "NORAD_CAT_ID": 60133, "ELEMENT_SET_NO": 999, "REV_AT_EPOCH": 524, "BSTAR": 0, "MEAN_MOTION_DOT": -2.26e-06, "MEAN_MOTION_DDOT": 0}, "tle": {"line1": "1 60133U 24119A   25361.23997403 -.00000226  00000+0  00000+0 0  9993", "line2": "2 60133   0.0128 247.4260 0001156  71.0215 148.7249  1.00270004  5240"}}, "geometry": {"type": "Point", "coordinates": [-135.21589499145654, -0.002072737832340401]}}, {"type": "Feature", "properties": {"norad_id": 65815, "name": "FENGYUN 3H", "group": "weather", "lat": -19.182019421000934, "lon": 117.7963010692882, "alt_km": 830.7111170495182, "timestamp": "2025-12-27T13:34:48.933460+00:00", "meta": {"OBJECT_NAME": "FENGYUN 3H", "OBJECT_ID": "2025-219A", "EPOCH": "2025-12-27T05:52:47.393472", "MEAN_MOTION": 14.19908679, "ECCENTRICITY": 8.841e-05, "INCLINATION": 98.6603, "RA_OF_ASC_NODE": 300.5217, "ARG_OF_PERICENTER": 109.7825, "MEAN_ANOMALY": 250.3447, "EPHEMERIS_TYPE": 0, "CLASSIFICATION_TYPE": "U", "NORAD_CAT_ID": 65815, "ELEMENT_SET_NO": 999, "REV_AT_EPOCH": 1298, "BSTAR": 7.8072487e-05, "MEAN_MOTION_DOT": 1.23e-06, "MEAN_MOTION_DDOT": 0}, "tle": {"line1": "1 65815U 25219A   25361.24499298  .00000123  00000+0  78072-4 0  9991", "line2": "2 65815  98.6603 300.5217 0000884 109.7825 250.3447 14.19908679 12988"}}, "geometry": {"type": "Point", "coordinates": [117.7963010692882, -19.182019421000934]}}]}